[{"OBJECT_NAME":"STARLINK-35172","OBJECT_ID":"2025-200P","EPOCH":"2026-03-09T17:30:35.455392","MEAN_MOTION":15.05641967,"ECCENTRICITY":0.00026072,"INCLINATION":97.6023,"RA_OF_ASC_NODE":139.7864,"ARG_OF_PERICENTER":63.6851,"MEAN_ANOMALY":296.4643,"EPHEMERIS_TYPE":0,"CLASSIFICATION_TYPE":"U","NORAD_CAT_ID":65533,"ELEMENT_SET_NO":999,"REV_AT_EPOCH":2913,"BSTAR":-0.00031198218,"MEAN_MOTION_DOT":-4.559e-5,"MEAN_MOTION_DDOT":0},{"OBJECT_NAME":"COSMOS 2251 DEB","OBJECT_ID":"1993-036AKM","EPOCH":"2026-03-09T06:40:10.063200","MEAN_MOTION":15.08111536,"ECCENTRICITY":0.00695902,"INCLINATION":73.9816,"RA_OF_ASC_NODE":154.5784,"ARG_OF_PERICENTER":280.7947,"MEAN_ANOMALY":78.5416,"EPHEMERIS_TYPE":0,"CLASSIFICATION_TYPE":"U","NORAD_CAT_ID":35443,"ELEMENT_SET_NO":999,"REV_AT_EPOCH":88177,"BSTAR":0.0043181541,"MEAN_MOTION_DOT":0.00071124,"MEAN_MOTION_DDOT":0}]
